{
  "type": "FeatureCollection",
  "features": [
    {
      "type": "Feature",
      "properties": {
        "norad_id": 34722,
        "name": "COSMOS 2251 DEB",
        "group": "cosmos-2251-debris",
        "lat": 14.74818199844366,
        "lon": -8.941956980322248,
        "alt_km": 877.0096284707142,
        "timestamp": "2025-12-06T18:50:10.564764+00:00",
        "meta_object_name": "COSMOS 2251 DEB",
        "meta_object_id": "1993-036YQ",
        "meta_epoch": "2025-12-06T06:56:22.172928",
        "meta_mean_motion": 14.11902055,
        "meta_eccentricity": 0.01673747,
        "meta_inclination": 73.8723,
        "meta_ra_of_asc_node": 347.5734,
        "meta_arg_of_pericenter": 274.233,
        "meta_mean_anomaly": 100.7761,
        "meta_ephemeris_type": 0,
        "meta_classification_type": "U",
        "meta_norad_cat_id": 34722,
        "meta_element_set_no": 999,
        "meta_rev_at_epoch": 86154,
        "meta_bstar": 0.0015899252,
        "meta_mean_motion_dot": 3.289e-05,
        "meta_mean_motion_ddot": 0,
        "tle_line1": "1 34722U 93036YQ  25340.28914552  .00003289  00000+0  15899-2 0  9994",
        "tle_line2": "2 34722  73.8723 347.5734 0167374 274.2330 100.7761 14.11902055861546"
      },
      "geometry": {
        "type": "Point",
        "coordinates": [
          -8.941956980322248,
          14.74818199844366
        ]
      }
    },
    {
      "type": "Feature",
      "properties": {
        "norad_id": 34726,
        "name": "COSMOS 2251 DEB",
        "group": "cosmos-2251-debris",
        "lat": 69.33300414855498,
        "lon": 128.28881720423624,
        "alt_km": 667.4218817628735,
        "timestamp": "2025-12-06T18:50:10.564774+00:00",
        "meta_object_name": "COSMOS 2251 DEB",
        "meta_object_id": "1993-036YU",
        "meta_epoch": "2025-12-06T03:33:29.359008",
        "meta_mean_motion": 14.59443557,
        "meta_eccentricity": 0.00423478,
        "meta_inclination": 74.0291,
        "meta_ra_of_asc_node": 358.8978,
        "meta_arg_of_pericenter": 151.7442,
        "meta_mean_anomaly": 208.6034,
        "meta_ephemeris_type": 0,
        "meta_classification_type": "U",
        "meta_norad_cat_id": 34726,
        "meta_element_set_no": 999,
        "meta_rev_at_epoch": 88406,
        "meta_bstar": 0.00071240851,
        "meta_mean_motion_dot": 3.391e-05,
        "meta_mean_motion_ddot": 0,
        "tle_line1": "1 34726U 93036YU  25340.14825647  .00003391  00000+0  71241-3 0  9997",
        "tle_line2": "2 34726  74.0291 358.8978 0042347 151.7442 208.6034 14.59443557884065"
      },
      "geometry": {
        "type": "Point",
        "coordinates": [
          128.28881720423624,
          69.33300414855498
        ]
      }
    },
    {
      "type": "Feature",
      "properties": {
        "norad_id": 34728,
        "name": "COSMOS 2251 DEB",
        "group": "cosmos-2251-debris",
        "lat": 71.64761226692954,
        "lon": 23.580544311915833,
        "alt_km": 628.2239181543237,
        "timestamp": "2025-12-06T18:50:10.564784+00:00",
        "meta_object_name": "COSMOS 2251 DEB",
        "meta_object_id": "1993-036YW",
        "meta_epoch": "2025-12-06T05:19:50.065536",
        "meta_mean_motion": 14.70746647,
        "meta_eccentricity": 0.00408299,
        "meta_inclination": 74.0179,
        "meta_ra_of_asc_node": 264.4359,
        "meta_arg_of_pericenter": 63.9353,
        "meta_mean_anomaly": 296.6012,
        "meta_ephemeris_type": 0,
        "meta_classification_type": "U",
        "meta_norad_cat_id": 34728,
        "meta_element_set_no": 999,
        "meta_rev_at_epoch": 88704,
        "meta_bstar": 0.0014731687,
        "meta_mean_motion_dot": 9.083e-05,
        "meta_mean_motion_ddot": 0,
        "tle_line1": "1 34728U 93036YW  25340.22210724  .00009083  00000+0  14732-2 0  9997",
        "tle_line2": "2 34728  74.0179 264.4359 0040829  63.9353 296.6012 14.70746647887048"
      },
      "geometry": {
        "type": "Point",
        "coordinates": [
          23.580544311915833,
          71.64761226692954
        ]
      }
    },
    {
      "type": "Feature",
      "properties": {
        "norad_id": 34729,
        "name": "COSMOS 2251 DEB",
        "group": "cosmos-2251-debris",
        "lat": -36.78932471711846,
        "lon": -157.40095275392974,
        "alt_km": 626.632450491702,
        "timestamp": "2025-12-06T18:50:10.564794+00:00",
        "meta_object_name": "COSMOS 2251 DEB",
        "meta_object_id": "1993-036YX",
        "meta_epoch": "2025-12-06T07:05:19.106592",
        "meta_mean_motion": 14.82523611,
        "meta_eccentricity": 0.00119377,
        "meta_inclination": 74.0182,
        "meta_ra_of_asc_node": 11.1922,
        "meta_arg_of_pericenter": 134.1238,
        "meta_mean_anomaly": 352.8286,
        "meta_ephemeris_type": 0,
        "meta_classification_type": "U",
        "meta_norad_cat_id": 34729,
        "meta_element_set_no": 999,
        "meta_rev_at_epoch": 88362,
        "meta_bstar": 0.0032111277,
        "meta_mean_motion_dot": 0.00025901,
        "meta_mean_motion_ddot": 0,
        "tle_line1": "1 34729U 93036YX  25340.29536003  .00025901  00000+0  32111-2 0  9994",
        "tle_line2": "2 34729  74.0182  11.1922 0011937 134.1238 352.8286 14.82523611883622"
      },
      "geometry": {
        "type": "Point",
        "coordinates": [
          -157.40095275392974,
          -36.78932471711846
        ]
      }
    },
    {
      "type": "Feature",
      "properties": {
        "norad_id": 34732,
        "name": "COSMOS 2251 DEB",
        "group": "cosmos-2251-debris",
        "lat": 55.00284701798966,
        "lon": -99.80504676568482,
        "alt_km": 749.1961034811793,
        "timestamp": "2025-12-06T18:50:10.564804+00:00",
        "meta_object_name": "COSMOS 2251 DEB",
        "meta_object_id": "1993-036ZA",
        "meta_epoch": "2025-12-06T08:27:38.065824",
        "meta_mean_motion": 14.47289359,
        "meta_eccentricity": 0.00404842,
        "meta_inclination": 74.0446,
        "meta_ra_of_asc_node": 105.1208,
        "meta_arg_of_pericenter": 257.2995,
        "meta_mean_anomaly": 132.9602,
        "meta_ephemeris_type": 0,
        "meta_classification_type": "U",
        "meta_norad_cat_id": 34732,
        "meta_element_set_no": 999,
        "meta_rev_at_epoch": 88051,
        "meta_bstar": 0.00030762132,
        "meta_mean_motion_dot": 1.109e-05,
        "meta_mean_motion_ddot": 0,
        "tle_line1": "1 34732U 93036ZA  25340.35252391  .00001109  00000+0  30762-3 0  9995",
        "tle_line2": "2 34732  74.0446 105.1208 0040484 257.2995 132.9602 14.47289359880519"
      },
      "geometry": {
        "type": "Point",
        "coordinates": [
          -99.80504676568482,
          55.00284701798966
        ]
      }
    },
    {
      "type": "Feature",
      "properties": {
        "norad_id": 34736,
        "name": "COSMOS 2251 DEB",
        "group": "cosmos-2251-debris",
        "lat": -36.538208479971594,
        "lon": 36.946493955067425,
        "alt_km": 436.5519879115536,
        "timestamp": "2025-12-06T18:50:10.564814+00:00",
        "meta_object_name": "COSMOS 2251 DEB",
        "meta_object_id": "1993-036ZE",
        "meta_epoch": "2025-12-05T21:11:47.262624",
        "meta_mean_motion": 15.41278097,
        "meta_eccentricity": 0.00164422,
        "meta_inclination": 74.0038,
        "meta_ra_of_asc_node": 51.1759,
        "meta_arg_of_pericenter": 352.6814,
        "meta_mean_anomaly": 7.4151,
        "meta_ephemeris_type": 0,
        "meta_classification_type": "U",
        "meta_norad_cat_id": 34736,
        "meta_element_set_no": 999,
        "meta_rev_at_epoch": 88342,
        "meta_bstar": 0.0087842486,
        "meta_mean_motion_dot": 0.00386079,
        "meta_mean_motion_ddot": 0,
        "tle_line1": "1 34736U 93036ZE  25339.88318591  .00386079  00000+0  87842-2 0  9992",
        "tle_line2": "2 34736  74.0038  51.1759 0016442 352.6814   7.4151 15.41278097883428"
      },
      "geometry": {
        "type": "Point",
        "coordinates": [
          36.946493955067425,
          -36.538208479971594
        ]
      }
    },
    {
      "type": "Feature",
      "properties": {
        "norad_id": 34738,
        "name": "COSMOS 2251 DEB",
        "group": "cosmos-2251-debris",
        "lat": 4.566108417333759,
        "lon": -26.916177341120406,
        "alt_km": 759.7780968072357,
        "timestamp": "2025-12-06T18:50:10.564824+00:00",
        "meta_object_name": "COSMOS 2251 DEB",
        "meta_object_id": "1993-036ZG",
        "meta_epoch": "2025-12-06T06:39:30.591360",
        "meta_mean_motion": 14.46279028,
        "meta_eccentricity": 0.00472212,
        "meta_inclination": 74.0141,
        "meta_ra_of_asc_node": 155.3437,
        "meta_arg_of_pericenter": 302.8375,
        "meta_mean_anomaly": 111.9338,
        "meta_ephemeris_type": 0,
        "meta_classification_type": "U",
        "meta_norad_cat_id": 34738,
        "meta_element_set_no": 999,
        "meta_rev_at_epoch": 87765,
        "meta_bstar": 0.00056466098,
        "meta_mean_motion_dot": 2.024e-05,
        "meta_mean_motion_ddot": 0,
        "tle_line1": "1 34738U 93036ZG  25340.27743740  .00002024  00000+0  56466-3 0  9991",
        "tle_line2": "2 34738  74.0141 155.3437 0047221 302.8375 111.9338 14.46279028877658"
      },
      "geometry": {
        "type": "Point",
        "coordinates": [
          -26.916177341120406,
          4.566108417333759
        ]
      }
    }
  ]
}